[{"OBJECT_NAME":"MESON-1","OBJECT_ID":"2024-043AK","EPOCH":"2026-03-09T21:36:16.481664","MEAN_MOTION":15.29893494,"ECCENTRICITY":0.00095452,"INCLINATION":97.5469,"RA_OF_ASC_NODE":205.2839,"ARG_OF_PERICENTER":227.1432,"MEAN_ANOMALY":132.9007,"EPHEMERIS_TYPE":0,"CLASSIFICATION_TYPE":"U","NORAD_CAT_ID":59131,"ELEMENT_SET_NO":999,"REV_AT_EPOCH":11189,"BSTAR":0.0002974823,"MEAN_MOTION_DOT":8.544e-5,"MEAN_MOTION_DDOT":0},{"OBJECT_NAME":"STARLINK-33838","OBJECT_ID":"2025-071H","EPOCH":"2026-03-09T12:11:40.786080","MEAN_MOTION":15.30209781,"ECCENTRICITY":9.208e-5,"INCLINATION":53.1592,"RA_OF_ASC_NODE":140.6553,"ARG_OF_PERICENTER":130.4958,"MEAN_ANOMALY":229.6123,"EPHEMERIS_TYPE":0,"CLASSIFICATION_TYPE":"U","NORAD_CAT_ID":63500,"ELEMENT_SET_NO":999,"REV_AT_EPOCH":5253,"BSTAR":0.00072192791,"MEAN_MOTION_DOT":0.00021089,"MEAN_MOTION_DDOT":0}]
