MESON-1                 
1 59131U 24043AK  26068.90019075  .00008544  00000+0  29748-3 0  9998
2 59131  97.5469 205.2839 0009545 227.1432 132.9007 15.29893494111890
STARLINK-33838          
1 63500U 25071H   26068.50811095  .00021089  00000+0  72193-3 0  9994
2 63500  53.1592 140.6553 0000920 130.4958 229.6123 15.30209781 52532
